{
  "type": "FeatureCollection",
  "features": [
    {
      "type": "Feature",
      "properties": {
        "norad_id": 51444,
        "name": "CSG-2",
        "group": "resource",
        "lat": 50.87650020893628,
        "lon": -1.0285025317843448,
        "alt_km": 617.1071664464898,
        "timestamp": "2025-12-13T20:38:50.652721+00:00",
        "meta_object_name": "CSG-2",
        "meta_object_id": "2022-008A",
        "meta_epoch": "2025-12-13T07:06:30.165408",
        "meta_mean_motion": 14.82165636,
        "meta_eccentricity": 0.0001529,
        "meta_inclination": 97.8809,
        "meta_ra_of_asc_node": 168.6108,
        "meta_arg_of_pericenter": 82.2621,
        "meta_mean_anomaly": 277.8766,
        "meta_ephemeris_type": 0,
        "meta_classification_type": "U",
        "meta_norad_cat_id": 51444,
        "meta_element_set_no": 999,
        "meta_rev_at_epoch": 20905,
        "meta_bstar": 0.00011920068,
        "meta_mean_motion_dot": 8.97e-06,
        "meta_mean_motion_ddot": 0,
        "tle_line1": "1 51444U 22008A   25347.29618247  .00000897  00000+0  11920-3 0  9999",
        "tle_line2": "2 51444  97.8809 168.6108 0001529  82.2621 277.8766 14.82165636209050"
      },
      "geometry": {
        "type": "Point",
        "coordinates": [
          -1.0285025317843448,
          50.87650020893628
        ]
      }
    },
    {
      "type": "Feature",
      "properties": {
        "norad_id": 52912,
        "name": "GAOFEN-12 03",
        "group": "resource",
        "lat": 34.13833246348918,
        "lon": -130.1825384400931,
        "alt_km": 627.0042535885059,
        "timestamp": "2025-12-13T20:38:50.652731+00:00",
        "meta_object_name": "GAOFEN-12 03",
        "meta_object_id": "2022-069A",
        "meta_epoch": "2025-12-13T05:53:04.922304",
        "meta_mean_motion": 14.79612685,
        "meta_eccentricity": 0.00021586,
        "meta_inclination": 97.8477,
        "meta_ra_of_asc_node": 234.5827,
        "meta_arg_of_pericenter": 61.7596,
        "meta_mean_anomaly": 298.3833,
        "meta_ephemeris_type": 0,
        "meta_classification_type": "U",
        "meta_norad_cat_id": 52912,
        "meta_element_set_no": 999,
        "meta_rev_at_epoch": 18711,
        "meta_bstar": 0.00033001591,
        "meta_mean_motion_dot": 2.423e-05,
        "meta_mean_motion_ddot": 0,
        "tle_line1": "1 52912U 22069A   25347.24519586  .00002423  00000+0  33002-3 0  9990",
        "tle_line2": "2 52912  97.8477 234.5827 0002158  61.7596 298.3833 14.79612685187117"
      },
      "geometry": {
        "type": "Point",
        "coordinates": [
          -130.1825384400931,
          34.13833246348918
        ]
      }
    },
    {
      "type": "Feature",
      "properties": {
        "norad_id": 54754,
        "name": "SWOT",
        "group": "resource",
        "lat": 48.97155470133472,
        "lon": -59.89114738870832,
        "alt_km": 888.4604969612737,
        "timestamp": "2025-12-13T20:38:50.652741+00:00",
        "meta_object_name": "SWOT",
        "meta_object_id": "2022-173A",
        "meta_epoch": "2025-12-13T06:41:14.921952",
        "meta_mean_motion": 14.00165723,
        "meta_eccentricity": 3.404e-05,
        "meta_inclination": 77.6108,
        "meta_ra_of_asc_node": 286.2622,
        "meta_arg_of_pericenter": 106.5655,
        "meta_mean_anomaly": 253.5534,
        "meta_ephemeris_type": 0,
        "meta_classification_type": "U",
        "meta_norad_cat_id": 54754,
        "meta_element_set_no": 999,
        "meta_rev_at_epoch": 15313,
        "meta_bstar": 6.4602637e-05,
        "meta_mean_motion_dot": 9.3e-07,
        "meta_mean_motion_ddot": 0,
        "tle_line1": "1 54754U 22173A   25347.27864493  .00000093  00000+0  64603-4 0  9998",
        "tle_line2": "2 54754  77.6108 286.2622 0000340 106.5655 253.5534 14.00165723153138"
      },
      "geometry": {
        "type": "Point",
        "coordinates": [
          -59.89114738870832,
          48.97155470133472
        ]
      }
    },
    {
      "type": "Feature",
      "properties": {
        "norad_id": 57654,
        "name": "GAOFEN-12 04",
        "group": "resource",
        "lat": -24.456236720157293,
        "lon": 79.97438013388305,
        "alt_km": 636.4623105107439,
        "timestamp": "2025-12-13T20:38:50.652752+00:00",
        "meta_object_name": "GAOFEN-12 04",
        "meta_object_id": "2023-123A",
        "meta_epoch": "2025-12-13T06:44:32.195616",
        "meta_mean_motion": 14.79703631,
        "meta_eccentricity": 0.00013589,
        "meta_inclination": 97.9117,
        "meta_ra_of_asc_node": 263.0301,
        "meta_arg_of_pericenter": 75.0348,
        "meta_mean_anomaly": 285.1014,
        "meta_ephemeris_type": 0,
        "meta_classification_type": "U",
        "meta_norad_cat_id": 57654,
        "meta_element_set_no": 999,
        "meta_rev_at_epoch": 12513,
        "meta_bstar": 0.00031279123,
        "meta_mean_motion_dot": 2.298e-05,
        "meta_mean_motion_ddot": 0,
        "tle_line1": "1 57654U 23123A   25347.28092819  .00002298  00000+0  31279-3 0  9993",
        "tle_line2": "2 57654  97.9117 263.0301 0001358  75.0348 285.1014 14.79703631125136"
      },
      "geometry": {
        "type": "Point",
        "coordinates": [
          79.97438013388305,
          -24.456236720157293
        ]
      }
    },
    {
      "type": "Feature",
      "properties": {
        "norad_id": 59065,
        "name": "PARS 1",
        "group": "resource",
        "lat": 51.151857071774494,
        "lon": 148.18491659593454,
        "alt_km": 434.1055001501318,
        "timestamp": "2025-12-13T20:38:50.652762+00:00",
        "meta_object_name": "PARS 1",
        "meta_object_id": "2024-039Q",
        "meta_epoch": "2025-12-13T07:37:36.249888",
        "meta_mean_motion": 15.40995297,
        "meta_eccentricity": 0.00125275,
        "meta_inclination": 97.4634,
        "meta_ra_of_asc_node": 318.2631,
        "meta_arg_of_pericenter": 70.6152,
        "meta_mean_anomaly": 289.6447,
        "meta_ephemeris_type": 0,
        "meta_classification_type": "U",
        "meta_norad_cat_id": 59065,
        "meta_element_set_no": 999,
        "meta_rev_at_epoch": 9997,
        "meta_bstar": 0.00042999947,
        "meta_mean_motion_dot": 0.00017707,
        "meta_mean_motion_ddot": 0,
        "tle_line1": "1 59065U 24039Q   25347.31778067  .00017707  00000+0  43000-3 0  9994",
        "tle_line2": "2 59065  97.4634 318.2631 0012527  70.6152 289.6447 15.40995297 99977"
      },
      "geometry": {
        "type": "Point",
        "coordinates": [
          148.18491659593454,
          51.151857071774494
        ]
      }
    },
    {
      "type": "Feature",
      "properties": {
        "norad_id": 59371,
        "name": "RESURS-P 4",
        "group": "resource",
        "lat": -53.69031222750175,
        "lon": 104.18526310180596,
        "alt_km": 477.6222611684243,
        "timestamp": "2025-12-13T20:38:50.652772+00:00",
        "meta_object_name": "RESURS-P 4",
        "meta_object_id": "2024-061A",
        "meta_epoch": "2025-12-13T07:05:17.109888",
        "meta_mean_motion": 15.32093608,
        "meta_eccentricity": 0.00014895,
        "meta_inclination": 97.254,
        "meta_ra_of_asc_node": 293.614,
        "meta_arg_of_pericenter": 53.1385,
        "meta_mean_anomaly": 306.9994,
        "meta_ephemeris_type": 0,
        "meta_classification_type": "U",
        "meta_norad_cat_id": 59371,
        "meta_element_set_no": 999,
        "meta_rev_at_epoch": 9529,
        "meta_bstar": 0.00020340656,
        "meta_mean_motion_dot": 6.227e-05,
        "meta_mean_motion_ddot": 0,
        "tle_line1": "1 59371U 24061A   25347.29533692  .00006227  00000+0  20341-3 0  9997",
        "tle_line2": "2 59371  97.2540 293.6140 0001489  53.1385 306.9994 15.32093608 95298"
      },
      "geometry": {
        "type": "Point",
        "coordinates": [
          104.18526310180596,
          -53.69031222750175
        ]
      }
    },
    {
      "type": "Feature",
      "properties": {
        "norad_id": 59625,
        "name": "LEGION 1",
        "group": "resource",
        "lat": 36.044747038711755,
        "lon": 56.971519402253925,
        "alt_km": 513.6512873933198,
        "timestamp": "2025-12-13T20:38:50.652782+00:00",
        "meta_object_name": "LEGION 1",
        "meta_object_id": "2024-081A",
        "meta_epoch": "2025-12-13T06:14:06.087552",
        "meta_mean_motion": 15.16490945,
        "meta_eccentricity": 0.00038966,
        "meta_inclination": 97.5212,
        "meta_ra_of_asc_node": 61.8936,
        "meta_arg_of_pericenter": 316.1052,
        "meta_mean_anomaly": 43.987,
        "meta_ephemeris_type": 0,
        "meta_classification_type": "U",
        "meta_norad_cat_id": 59625,
        "meta_element_set_no": 999,
        "meta_rev_at_epoch": 8935,
        "meta_bstar": 0.00040825,
        "meta_mean_motion_dot": 7.888e-05,
        "meta_mean_motion_ddot": 0,
        "tle_line1": "1 59625U 24081A   25347.25979268  .00007888  00000+0  40825-3 0  9993",
        "tle_line2": "2 59625  97.5212  61.8936 0003896 316.1052  43.9870 15.16490945 89352"
      },
      "geometry": {
        "type": "Point",
        "coordinates": [
          56.971519402253925,
          36.044747038711755
        ]
      }
    }
  ]
}